NORAD_CAT_ID,OBJECT_NAME,OBJECT_TYPE,EPOCH,MEAN_MOTION,ECCENTRICITY,INCLINATION,RA_OF_ASC_NODE,ARG_OF_PERICENTER,MEAN_ANOMALY,BSTAR,MEAN_MOTION_DOT,MEAN_MOTION_DDOT,TLE_LINE0,TLE_LINE1,TLE_LINE2,SEMIMAJOR_AXIS,PERIOD,APOGEE,PERIGEE,DECAYED
51891.0,STARLINK-3549,PAYLOAD,2023-09-14 23:36:39,15.08830191,0.0001233,53.216,109.4826,82.3788,277.7345,-0.00010673,-1.986e-05,0.0,0 STARLINK-3549,1 51891U 22022AR  23257.98379209 -.00001986  00000-0 -10673-3 0  9994,2 51891  53.2160 109.4826 0001233  82.3788 277.7345 15.08830191 86418,6917.91,95.438,540.628,538.922,0.0
51891.0,STARLINK-3549,PAYLOAD,2023-09-15 20:16:40,15.08845483,0.000121,53.2159,105.6164,84.2311,275.8819,0.00013164,1.808e-05,0.0,0 STARLINK-3549,1 51891U 22022AR  23258.84490750  .00001808  00000-0  13164-3 0  9994,2 51891  53.2159 105.6164 0001210  84.2311 275.8819 15.08845483 86546,6917.864,95.437,540.566,538.892,0.0
51891.0,STARLINK-3549,PAYLOAD,2023-09-16 16:56:41,15.08843859,0.0001256,53.2159,101.7505,86.3408,273.7728,0.00028328,4.224e-05,0.0,0 STARLINK-3549,1 51891U 22022AR  23259.70603032  .00004224  00000-0  28328-3 0  9992,2 51891  53.2159 101.7505 0001256  86.3408 273.7728 15.08843859 86677,6917.869,95.437,540.602,538.865,0.0
51891.0,STARLINK-3549,PAYLOAD,2023-09-16 20:07:27,15.08846933,0.0001282,53.2159,101.1551,91.7192,268.3947,0.00035014,5.29e-05,0.0,0 STARLINK-3549,1 51891U 22022AR  23259.83850879  .00005290  00000-0  35014-3 0  9993,2 51891  53.2159 101.1551 0001282  91.7192 268.3947 15.08846933 86692,6917.859,95.437,540.611,538.837,0.0
51891.0,STARLINK-3549,PAYLOAD,2023-09-17 18:22:50,15.08847187,0.0001467,53.2171,96.9914,99.203,260.9128,8.2338e-05,1.023e-05,0.0,0 STARLINK-3549,1 51891U 22022AR  23260.76586594  .00001023  00000-0  82338-4 0  9999,2 51891  53.2171  96.9914 0001467  99.2030 260.9128 15.08847187 86836,6917.858,95.437,540.738,538.709,0.0
51891.0,STARLINK-3549,PAYLOAD,2023-09-18 11:52:05,15.08849434,0.0001373,53.2173,93.7229,97.3665,262.7484,4.5263e-05,4.33e-06,0.0,0 STARLINK-3549,1 51891U 22022AR  23261.49450395  .00000433  00000-0  45263-4 0  9999,2 51891  53.2173  93.7229 0001373  97.3665 262.7484 15.08849434 86945,6917.852,95.437,540.666,538.767,0.0
51891.0,STARLINK-3549,PAYLOAD,2023-09-18 18:13:38,15.08844012,0.0001391,53.2175,92.5345,89.8666,270.2485,9.1189e-06,-1.43e-06,0.0,0 STARLINK-3549,1 51891U 22022AR  23261.75946852 -.00000143  00000-0  91189-5 0  9994,2 51891  53.2175  92.5345 0001391  89.8666 270.2485 15.08844012 86986,6917.868,95.437,540.695,538.771,0.0
51891.0,STARLINK-3549,PAYLOAD,2023-09-18 19:49:00,15.08846939,0.0001386,53.2178,92.2361,90.591,269.5241,4.2844e-05,3.94e-06,0.0,0 STARLINK-3549,1 51891U 22022AR  23261.82570570  .00000394  00000-0  42844-4 0  9992,2 51891  53.2178  92.2361 0001386  90.5910 269.5241 15.08846939 86991,6917.859,95.437,540.683,538.765,0.0
51891.0,STARLINK-3549,PAYLOAD,2023-09-19 00:35:09,15.08854674,0.0001327,53.2175,91.3428,91.0925,269.0219,0.00011039,1.47e-05,0.0,0 STARLINK-3549,1 51891U 22022AR  23262.02441824  .00001470  00000-0  11039-3 0  9991,2 51891  53.2175  91.3428 0001327  91.0925 269.0219 15.08854674 87029,6917.836,95.437,540.619,538.783,0.0
51891.0,STARLINK-3549,PAYLOAD,2023-09-19 05:21:20,15.0883626,0.0001185,53.2172,90.4525,92.1164,267.9964,2.7885e-05,1.56e-06,0.0,0 STARLINK-3549,1 51891U 22022AR  23262.22315073  .00000156  00000-0  27885-4 0  9996,2 51891  53.2172  90.4525 0001185  92.1164 267.9964 15.08836260 87051,6917.892,95.438,540.577,538.937,0.0
51891.0,STARLINK-3549,PAYLOAD,2023-09-19 18:04:24,15.08842013,0.0001415,53.2168,88.0723,83.9774,276.1379,6.2004e-05,6.99e-06,0.0,0 STARLINK-3549,1 51891U 22022AR  23262.75306560  .00000699  00000-0  62004-4 0  9999,2 51891  53.2168  88.0723 0001415  83.9774 276.1379 15.08842013 87134,6917.874,95.437,540.718,538.76,0.0
51891.0,STARLINK-3549,PAYLOAD,2023-09-19 22:50:33,15.08849614,0.0001407,53.2166,87.1803,89.3011,270.8143,0.00016734,2.377e-05,0.0,0 STARLINK-3549,1 51891U 22022AR  23262.95178111  .00002377  00000-0  16734-3 0  9993,2 51891  53.2166  87.1803 0001407  89.3011 270.8143 15.08849614 87163,6917.851,95.437,540.689,538.743,0.0
51891.0,STARLINK-3549,PAYLOAD,2023-09-20 11:33:40,15.08817714,7.31e-05,53.2171,84.7999,64.8504,295.2564,-0.00030541,-5.142e-05,0.0,0 STARLINK-3549,1 51891U 22022AR  23263.48172153 -.00005142  00000-0 -30541-3 0  9999,2 51891  53.2171  84.7999 0000731  64.8504 295.2564 15.08817714 87245,6917.949,95.439,540.319,539.308,0.0
51891.0,STARLINK-3549,PAYLOAD,2023-09-20 21:05:59,15.0881869,0.0001553,53.2173,83.0168,84.3052,275.8117,-0.00022356,-3.842e-05,0.0,0 STARLINK-3549,1 51891U 22022AR  23263.87916378 -.00003842  00000-0 -22356-3 0  9997,2 51891  53.2173  83.0168 0001553  84.3052 275.8117 15.08818690 87304,6917.946,95.439,540.885,538.736,0.0
51891.0,STARLINK-3549,PAYLOAD,2023-09-21 11:24:28,15.08824682,0.0001479,53.2172,80.341,80.5652,279.5507,0.00011852,1.598e-05,0.0,0 STARLINK-3549,1 51891U 22022AR  23264.47533054  .00001598  00000-0  11852-3 0  9993,2 51891  53.2172  80.3410 0001479  80.5652 279.5507 15.08824682 87395,6917.927,95.439,540.815,538.769,0.0
51891.0,STARLINK-3549,PAYLOAD,2023-09-21 17:46:01,15.08831845,0.0001461,53.2172,79.1523,82.0553,278.0605,0.00041739,6.36e-05,0.0,0 STARLINK-3549,1 51891U 22022AR  23264.74029212  .00006360  00000-0  41739-3 0  9998,2 51891  53.2172  79.1523 0001461  82.0553 278.0605 15.08831845 87431,6917.905,95.438,540.781,538.76,0.0
51891.0,STARLINK-3549,PAYLOAD,2023-09-22 04:53:43,15.08851982,0.0001416,53.217,77.0712,85.2309,274.8844,0.00098316,0.00015399,0.0,0 STARLINK-3549,1 51891U 22022AR  23265.20397134  .00015399  00000-0  98316-3 0  9996,2 51891  53.2170  77.0712 0001416  85.2309 274.8844 15.08851982 87501,6917.844,95.437,540.688,538.729,0.0
51891.0,STARLINK-3549,PAYLOAD,2023-09-22 20:47:33,15.08881079,0.0001364,53.2168,74.0962,87.295,272.8198,0.001304,0.00020549,0.0,0 STARLINK-3549,1 51891U 22022AR  23265.86635883  .00020549  00000-0  13040-2 0  9997,2 51891  53.2168  74.0962 0001364  87.2950 272.8198 15.08881079 87609,6917.755,95.435,540.563,538.676,0.0
51891.0,STARLINK-3549,PAYLOAD,2023-09-22 22:22:56,15.08883911,0.0001355,53.2167,73.7986,87.355,272.7597,0.0013153,0.00020732,0.0,0 STARLINK-3549,1 51891U 22022AR  23265.93259689  .00020732  00000-0  13153-2 0  9990,2 51891  53.2167  73.7986 0001355  87.3550 272.7597 15.08883911 87617,6917.746,95.435,540.549,538.674,0.0
51891.0,STARLINK-3549,PAYLOAD,2023-09-23 04:44:28,15.08864316,0.0001321,53.2169,72.6091,91.9777,268.1366,0.00038669,5.876e-05,0.0,0 STARLINK-3549,1 51891U 22022AR  23266.19755667  .00005876  00000-0  38669-3 0  9998,2 51891  53.2169  72.6091 0001321  91.9777 268.1366 15.08864316 87654,6917.806,95.436,540.585,538.757,0.0
51891.0,STARLINK-3549,PAYLOAD,2023-09-23 17:27:33,15.08861742,0.0001523,53.217,70.2298,96.6315,263.485,0.00045426,6.953e-05,0.0,0 STARLINK-3549,1 51891U 22022AR  23266.72747318  .00006953  00000-0  45426-3 0  9997,2 51891  53.2170  70.2298 0001523  96.6315 263.4850 15.08861742 87738,6917.814,95.436,540.733,538.625,0.0
51891.0,STARLINK-3549,PAYLOAD,2023-09-24 14:07:34,15.08855865,0.0001092,53.2171,66.364,99.365,260.7466,0.0011191,0.00017575,0.0,0 STARLINK-3549,1 51891U 22022AR  23267.58859384  .00017575  00000-0  11191-2 0  9992,2 51891  53.2171  66.3640 0001092  99.3650 260.7466 15.08855865 87865,6917.832,95.437,540.452,538.941,0.0
51891.0,STARLINK-3549,PAYLOAD,2023-09-24 17:18:20,15.08856809,0.0001184,53.217,65.7697,85.8459,274.2669,0.0008418,0.00013141,0.0,0 STARLINK-3549,1 51891U 22022AR  23267.72107359  .00013141  00000-0  84180-3 0  9990,2 51891  53.2170  65.7697 0001184  85.8459 274.2669 15.08856809 87884,6917.829,95.436,540.513,538.875,0.0
51891.0,STARLINK-3549,PAYLOAD,2023-09-24 20:29:06,15.08857435,0.0001258,53.2171,65.1752,86.1406,273.973,0.00085972,0.00013427,0.0,0 STARLINK-3549,1 51891U 22022AR  23267.85355263  .00013427  00000-0  85972-3 0  9990,2 51891  53.2171  65.1752 0001258  86.1406 273.9730 15.08857435 87903,6917.827,95.436,540.562,538.822,0.0
51891.0,STARLINK-3549,PAYLOAD,2023-09-25 10:47:35,15.08839526,0.0001293,53.217,62.4982,95.6703,264.4436,0.00041313,6.293e-05,0.0,0 STARLINK-3549,1 51891U 22022AR  23268.44971445  .00006293  00000-0  41313-3 0  9996,2 51891  53.2170  62.4982 0001293  95.6703 264.4436 15.08839526 87999,6917.882,95.438,540.641,538.852,0.0
51891.0,STARLINK-3549,PAYLOAD,2023-09-25 20:19:53,15.08857796,0.0001385,53.217,60.7142,95.248,264.867,0.0011943,0.0001878,0.0,0 STARLINK-3549,1 51891U 22022AR  23268.84715177  .00018780  00000-0  11943-2 0  9997,2 51891  53.2170  60.7142 0001385  95.2480 264.8670 15.08857796 88059,6917.826,95.436,540.649,538.733,0.0
51891.0,STARLINK-3549,PAYLOAD,2023-09-26 10:38:22,15.08832201,0.0001481,53.2173,58.0375,89.2365,270.8797,0.00035981,5.442e-05,0.0,0 STARLINK-3549,1 51891U 22022AR  23269.44331883  .00005442  00000-0  35981-3 0  9992,2 51891  53.2173  58.0375 0001481  89.2365 270.8797 15.08832201 88143,6917.904,95.438,540.794,538.745,0.0
51891.0,STARLINK-3549,PAYLOAD,2023-09-26 13:49:09,15.08831821,0.0001579,53.2176,57.4427,90.5619,269.5554,0.00044903,6.864e-05,0.0,0 STARLINK-3549,1 51891U 22022AR  23269.57580025  .00006864  00000-0  44903-3 0  9993,2 51891  53.2176  57.4427 0001579  90.5619 269.5554 15.08831821 88167,6917.905,95.438,540.863,538.678,0.0
51891.0,STARLINK-3549,PAYLOAD,2023-09-26 16:59:55,15.08837707,0.0001625,53.2172,56.8473,85.9222,274.1956,0.0006992,0.00010857,0.0,0 STARLINK-3549,1 51891U 22022AR  23269.70828093  .00010857  00000-0  69920-3 0  9991,2 51891  53.2172  56.8473 0001625  85.9222 274.1956 15.08837707 88186,6917.887,95.438,540.877,538.628,0.0
51891.0,STARLINK-3549,PAYLOAD,2023-09-27 10:29:10,15.08838209,0.0001591,53.2164,53.5768,99.4126,260.7046,0.00053135,8.178e-05,0.0,0 STARLINK-3549,1 51891U 22022AR  23270.43692406  .00008178  00000-0  53135-3 0  9994,2 51891  53.2164  53.5768 0001591  99.4126 260.7046 15.08838209 88294,6917.886,95.438,540.851,538.65,0.0
